NORAD_CAT_ID,OBJECT_NAME,OBJECT_TYPE,EPOCH,MEAN_MOTION,ECCENTRICITY,INCLINATION,RA_OF_ASC_NODE,ARG_OF_PERICENTER,MEAN_ANOMALY,BSTAR,MEAN_MOTION_DOT,MEAN_MOTION_DDOT,TLE_LINE0,TLE_LINE1,TLE_LINE2,SEMIMAJOR_AXIS,PERIOD,APOGEE,PERIGEE,DECAYED
51756.0,STARLINK-3513,PAYLOAD,2022-02-25 16:00:01,15.78650704,0.0003513,53.2181,119.4433,272.3621,238.8741,-0.0052448999999999,-0.00849279,0.0,0 STARLINK-3513,1 51756U 22016AU  22056.66668981 -.00849279  00000-0 -52449-2 0  9997,2 51756  53.2181 119.4433 0003513 272.3621 238.8741 15.78650704  1867,6712.4,91.217,336.6230000000001,331.907,0.0
51756.0,STARLINK-3513,PAYLOAD,2022-02-25 22:00:00,15.78210477,0.000168,53.2176,118.1943,273.8092,218.7576,-0.0056577,-0.00892526,0.0,0 STARLINK-3513,1 51756U 22016AU  22056.91667824 -.00892526  00000-0 -56577-2 0  9999,2 51756  53.2176 118.1943 0001680 273.8092 218.7576 15.78210477  1361,6713.648,91.243,336.641,334.385,0.0
51756.0,STARLINK-3513,PAYLOAD,2022-02-26 06:00:00,15.77568871,3.96e-05,53.2177,116.5334,78.3402,148.7831,-0.0056725,-0.00871092,0.0,0 STARLINK-3513,1 51756U 22016AU  22057.25001157 -.00871092  00000-0 -56725-2 0  9998,2 51756  53.2177 116.5334 0000396  78.3402 148.7831 15.77568871  1958,6715.468000000003,91.28,337.599,337.06699999999995,0.0
51756.0,STARLINK-3513,PAYLOAD,2022-02-26 14:00:01,15.76941184,0.0001109,53.2174,114.8758,62.0697,258.8467,-0.0058528,-0.00873754,0.0,0 STARLINK-3513,1 51756U 22016AU  22057.58334491 -.00873754  00000-0 -58528-2 0  9994,2 51756  53.2174 114.8758 0001109  62.0697 258.8467 15.76941184  1460,6717.25,91.316,339.86,338.37,0.0
51756.0,STARLINK-3513,PAYLOAD,2022-02-26 22:00:00,15.76311777,0.0001006,53.2175,113.2159,65.2507,348.7062,-0.0060155,-0.0087319,0.0,0 STARLINK-3513,1 51756U 22016AU  22057.91667824 -.00873190  00000-0 -60155-2 0  9993,2 51756  53.2175 113.2159 0001006  65.2507 348.7062 15.76311777  1526,6719.038000000001,91.352,341.579,340.227,0.0
51756.0,STARLINK-3513,PAYLOAD,2022-02-27 06:00:00,15.75683023,0.0001364,53.2175,111.5596,52.3853,93.8543,-0.006189,-0.00873729,0.0,0 STARLINK-3513,1 51756U 22016AU  22058.25001157 -.00873729  00000-0 -61890-2 0  9997,2 51756  53.2175 111.5596 0001364  52.3853  93.8543 15.75683023  2102,6720.825,91.389,343.607,341.774,0.0
51756.0,STARLINK-3513,PAYLOAD,2022-02-27 14:00:01,15.75050435,0.0001258,53.2176,109.9065,60.1639,177.6027,-0.0063201,-0.00868233,0.0,0 STARLINK-3513,1 51756U 22016AU  22058.58334491 -.00868233  00000-0 -63201-2 0  9995,2 51756  53.2176 109.9065 0001258  60.1639 177.6027 15.75050435  1625,6722.625,91.426,345.335,343.644,0.0
51756.0,STARLINK-3513,PAYLOAD,2022-02-27 22:00:00,15.744249300000002,0.0001095,53.2177,108.2512,57.9197,270.6174,-0.0065472,-0.00874391,0.0,0 STARLINK-3513,1 51756U 22016AU  22058.91667824 -.00874391  00000-0 -65472-2 0  9995,2 51756  53.2177 108.2512 0001095  57.9197 270.6174 15.74424930  1673,6724.405,91.462,347.006,345.534,0.0
51756.0,STARLINK-3513,PAYLOAD,2022-02-28 06:00:00,15.73701439,0.0001144,53.2177,106.6,50.5869,7.9824,-0.0048016,-0.00639258,0.0,0 STARLINK-3513,1 51756U 22016AU  22059.25001157 -.00639258  00000-0 -48016-2 0  9990,2 51756  53.2177 106.6000 0001144  50.5869   7.9824 15.73701439  2267,6726.465999999999,91.504,349.1,347.561,0.0
51756.0,STARLINK-3513,PAYLOAD,2022-02-28 14:00:01,15.73200082,0.0001117,53.2173,104.9513,70.0492,77.7658,5.7679e-05,7.482e-05,0.0,0 STARLINK-3513,1 51756U 22016AU  22059.58334491  .00007482  00000-0  57679-4 0  9999,2 51756  53.2173 104.9513 0001117  70.0492  77.7658 15.73200082  2327,6727.895,91.533,350.511,349.0080000000001,0.0
51756.0,STARLINK-3513,PAYLOAD,2022-02-28 22:00:00,15.73070301,8.53e-05,53.2187,103.3037,43.5201,193.2056,0.0019831,0.0028579,0.0,0 STARLINK-3513,1 51756U 22016AU  22059.91667824  .00285790  00000-0  19831-2 0  9991,2 51756  53.2187 103.3037 0000853  43.5201 193.2056 15.73070301  2375,6728.265,91.541,350.704,349.556,0.0
51756.0,STARLINK-3513,PAYLOAD,2022-03-01 06:00:00,15.73211168,8.109999999999999e-05,53.22,101.6586,39.2522,286.3386,7.8983e-05,0.00010484,0.0,0 STARLINK-3513,1 51756U 22016AU  22060.25001157  .00010484  00000-0  78983-4 0  9992,2 51756  53.2200 101.6586 0000811  39.2522 286.3386 15.73211168  2427,6727.863,91.533,350.274,349.18300000000005,0.0
51756.0,STARLINK-3513,PAYLOAD,2022-03-01 14:00:01,15.73196043,0.000104,53.2198,100.0106,29.29,25.2373,0.000596,0.00083848,0.0,0 STARLINK-3513,1 51756U 22016AU  22060.58334491  .00083848  00000-0  59600-3 0  9996,2 51756  53.2198 100.0106 0001040  29.2900  25.2373 15.73196043  1944,6727.906,91.533,350.471,349.07199999999995,0.0
51756.0,STARLINK-3513,PAYLOAD,2022-03-01 22:00:01,15.732289499999998,8.55e-05,53.2197,98.359,37.1329,106.4246,0.00045751,0.00064159,0.0,0 STARLINK-3513,1 51756U 22016AU  22060.91668981  .00064159  00000-0  45751-3 0  9993,2 51756  53.2197  98.3590 0000855  37.1329 106.4246 15.73228950  1994,6727.813,91.531,350.25300000000016,349.102,0.0
51756.0,STARLINK-3513,PAYLOAD,2022-03-02 06:00:00,15.73288679,0.0001087,53.2195,96.7105,44.1595,188.3222,-0.0005735,-0.00080641,0.0,0 STARLINK-3513,1 51756U 22016AU  22061.25001157 -.00080641  00000-0 -57350-3 0  9991,2 51756  53.2195  96.7105 0001087  44.1595 188.3222 15.73288679  2580,6727.642,91.528,350.23900000000015,348.776,0.0
51756.0,STARLINK-3513,PAYLOAD,2022-03-02 14:00:01,15.73242163,0.0001322,53.2189,95.062,41.1607,280.321,0.00017773,0.0002444,0.0,0 STARLINK-3513,1 51756U 22016AU  22061.58334491  .00024440  00000-0  17773-3 0  9995,2 51756  53.2189  95.0620 0001322  41.1607 280.3210 15.73242163  2634,6727.775,91.531,350.529,348.751,0.0
51756.0,STARLINK-3513,PAYLOAD,2022-03-02 22:00:00,15.73197126,0.0001309,53.2189,93.4102,57.5394,352.9369,0.00017835,0.0002448,0.0,0 STARLINK-3513,1 51756U 22016AU  22061.91667824  .00024480  00000-0  17835-3 0  9994,2 51756  53.2189  93.4102 0001309  57.5394 352.9369 15.73197126  2684,6727.903,91.533,350.649,348.88800000000015,0.0
51756.0,STARLINK-3513,PAYLOAD,2022-03-03 14:00:01,15.73173426,0.0001751999999999,53.2189,90.1132,55.0056,173.3296,0.0004436,0.00062027,0.0,0 STARLINK-3513,1 51756U 22016AU  22062.58334491  .00062027  00000-0  44360-3 0  9991,2 51756  53.2189  90.1132 0001752  55.0056 173.3296 15.73173426  2794,6727.971,91.535,351.015,348.657,0.0
51756.0,STARLINK-3513,PAYLOAD,2022-03-03 18:00:00,15.7313562,0.0001902,53.2176,89.2801,62.4757,30.246,0.00079502,0.00112149,0.0,0 STARLINK-3513,1 51756U 22016AU  22062.75001157  .00112149  00000-0  79502-3 0  9997,2 51756  53.2176  89.2801 0001902  62.4757  30.2460 15.73135620  2810,6728.079000000002,91.537,351.223,348.664,0.0
51756.0,STARLINK-3513,PAYLOAD,2022-03-03 22:00:00,15.73203889,0.00018,53.2175,88.4534,67.7769,249.3808,6.9389e-06,3.53e-06,0.0,0 STARLINK-3513,1 51756U 22016AU  22062.91667824  .00000353  00000-0  69389-5 0  9991,2 51756  53.2175  88.4534 0001800  67.7769 249.3808 15.73203889  2318,6727.884,91.533,350.96,348.538,0.0
51756.0,STARLINK-3513,PAYLOAD,2022-03-04 06:00:02,15.73281461,0.0001724,53.2189,86.8134,58.6688,347.6047,-0.00051674,-0.00072773,0.0,0 STARLINK-3513,1 51756U 22016AU  22063.25002315 -.00072773  00000-0 -51674-3 0  9990,2 51756  53.2189  86.8134 0001724  58.6688 347.6047 15.73281461  2897,6727.663000000001,91.528,350.68800000000016,348.36800000000005,0.0
51756.0,STARLINK-3513,PAYLOAD,2022-03-04 14:00:01,15.73211005,0.0001662,53.2183,85.1645,53.1583,82.125,0.00034417,0.00047981,0.0,0 STARLINK-3513,1 51756U 22016AU  22063.58335648  .00047981  00000-0  34417-3 0  9991,2 51756  53.2183  85.1645 0001662  53.1583  82.1250 15.73211005  2417,6727.864000000001,91.533,350.847,348.611,0.0
51756.0,STARLINK-3513,PAYLOAD,2022-03-04 20:00:03,15.73237386,0.0001413,53.2186,83.9256,58.4656,53.6031,0.00016758,0.00023,0.0,0 STARLINK-3513,1 51756U 22016AU  22063.83336806  .00023000  00000-0  16758-3 0  9990,2 51756  53.2186  83.9256 0001413  58.4656  53.6031 15.73237386  2989,6727.7890000000025,91.531,350.60400000000016,348.70300000000015,0.0
51756.0,STARLINK-3513,PAYLOAD,2022-03-04 22:00:00,15.7324807,0.0001338,53.2185,83.5129,59.722,164.4594,-2.9681e-06,-1.038e-05,0.0,0 STARLINK-3513,1 51756U 22016AU  22063.91667824 -.00001038  00000-0 -29681-5 0  9996,2 51756  53.2185  83.5129 0001338  59.7220 164.4594 15.73248070  2471,6727.7580000000025,91.53,350.523,348.723,0.0
51756.0,STARLINK-3513,PAYLOAD,2022-03-05 06:00:00,15.73237444,0.0001321,53.2188,81.8647,51.8097,261.3637,-0.00059342,-0.00083216,0.0,0 STARLINK-3513,1 51756U 22016AU  22064.25001157 -.00083216  00000-0 -59342-3 0  9998,2 51756  53.2188  81.8647 0001321  51.8097 261.3637 15.73237444  3050,6727.788000000001,91.531,350.542,348.765,0.0
51756.0,STARLINK-3513,PAYLOAD,2022-03-05 14:00:01,15.73230954,0.0001435,53.2188,80.2158,42.6286,359.4864,-0.0003031,-0.00042998,0.0,0 STARLINK-3513,1 51756U 22016AU  22064.58334491 -.00042998  00000-0 -30310-3 0  9990,2 51756  53.2188  80.2158 0001435  42.6286 359.4864 15.73230954  2570,6727.807,91.531,350.63699999999994,348.706,0.0
51756.0,STARLINK-3513,PAYLOAD,2022-03-05 16:00:00,15.73253999,0.0001399,53.219,79.8028,46.8614,107.4845,-0.00075367,-0.00105322,0.0,0 STARLINK-3513,1 51756U 22016AU  22064.66667824 -.00105322  00000-0 -75367-3 0  9990,2 51756  53.2190  79.8028 0001399  46.8614 107.4845 15.73253999  3129,6727.741,91.53,350.547,348.665,0.0
51756.0,STARLINK-3513,PAYLOAD,2022-03-05 22:00:01,15.73154837,0.0001321,53.2189,78.5643,56.1944,74.9468,0.00060225,0.00084592,0.0,0 STARLINK-3513,1 51756U 22016AU  22064.91668981  .00084592  00000-0  60225-3 0  9993,2 51756  53.2189  78.5643 0001321  56.1944  74.9468 15.73154837  2625,6728.024,91.536,350.778,349.0,0.0
51756.0,STARLINK-3513,PAYLOAD,2022-03-06 06:00:00,15.73217052,0.0001426,53.2189,76.9165,50.374,169.6325,-0.00026338,-0.00037447,0.0,0 STARLINK-3513,1 51756U 22016AU  22065.25001157 -.00037447  00000-0 -26338-3 0  9993,2 51756  53.2189  76.9165 0001426  50.3740 169.6325 15.73217052  3211,6727.847,91.532,350.671,348.75199999999984,0.0
